{"type":"Topology","transform":{"scale":[0.003589293992939929,0.0008590596905969058],"translate":[-179.14733999999999,-14.552548999999999]},"objects":{"counties":{"type":"GeometryCollection","geometries":[{"type":"Polygon","arcs":[[0,1,2,3,4,5]],"id":"17053","properties":{"name":"Ford"}},{"type":"Polygon","arcs":[[6,7,8,9,10,11]],"id":"17165","properties":{"name":"Saline"}},{"type":"Polygon","arcs":[[12,13,14,15,-8,16]],"id":"17065","properties":{"name":"Hamilton"}},{"type":"Polygon","arcs":[[17,18,19,20,21]],"id":"17201","properties":{"name":"Winnebago"}},{"type":"Polygon","arcs":[[22,23,24,25,26,27,28]],"id":"17037","properties":{"name":"DeKalb"}},{"type":"Polygon","arcs":[[29,30,31,32,33,34]],"id":"17123","properties":{"name":"Marshall"}},{"type":"Polygon","arcs":[[35,36,37,38,39,40]],"id":"17147","properties":{"name":"Piatt"}},{"type":"Polygon","arcs":[[41,42,43,44,45,46,47]],"id":"17159","properties":{"name":"Richland"}},{"type":"Polygon","arcs":[[48,49,50,51,52,53,54]],"id":"17107","properties":{"name":"Logan"}},{"type":"Polygon","arcs":[[55,56,57,58,59,60,61]],"id":"17051","properties":{"name":"Fayette"}},{"type":"Polygon","arcs":[[62,63,64,65,-58]],"id":"17049","properties":{"name":"Effingham"}},{"type":"Polygon","arcs":[[66,67,68,69,-26]],"id":"17093","properties":{"name":"Kendall"}},{"type":"Polygon","arcs":[[70,71,72,73,74,75]],"id":"17095","properties":{"name":"Knox"}},{"type":"Polygon","arcs":[[-27,-70,76,77,78,-32,79,80,81]],"id":"17099","properties":{"name":"LaSalle"}},{"type":"Polygon","arcs":[[82,83,84,-49,85,86]],"id":"17179","properties":{"name":"Tazewell"}},{"type":"Polygon","arcs":[[87,88,89,90]],"id":"17021","properties":{"name":"Christian"}},{"type":"Polygon","arcs":[[91,92,93]],"id":"17171","properties":{"name":"Scott"}},{"type":"Polygon","arcs":[[-69,94,95,96,-77]],"id":"17063","properties":{"name":"Grundy"}},{"type":"Polygon","arcs":[[97,98,99,-13,100,101]],"id":"17081","properties":{"name":"Jefferson"}},{"type":"Polygon","arcs":[[-80,-31,102]],"id":"17155","properties":{"name":"Putnam"}},{"type":"Polygon","arcs":[[103,-60,104,105,-99,106]],"id":"17121","properties":{"name":"Marion"}},{"type":"Polygon","arcs":[[107,108,109,110,-72,111]],"id":"17073","properties":{"name":"Henry"}},{"type":"Polygon","arcs":[[114,115,116,117,118,119]],"id":"17117","properties":{"name":"Macoupin"}},{"type":"Polygon","arcs":[[120,-36,121,-51]],"id":"17039","properties":{"name":"De Witt"}},{"type":"Polygon","arcs":[[123,124,125,126,127]],"id":"17109","properties":{"name":"McDonough"}},{"type":"Polygon","arcs":[[-106,128,-47,129,130,-14,-100]],"id":"17191","properties":{"name":"Wayne"}},{"type":"Polygon","arcs":[[131,132,133,134,135,136,137]],"id":"17163","properties":{"name":"St. Clair"}},{"type":"Polygon","arcs":[[-65,138,139,140,-42,141]],"id":"17079","properties":{"name":"Jasper"}},{"type":"Polygon","arcs":[[142,143,144,-139,-64]],"id":"17035","properties":{"name":"Cumberland"}},{"type":"Polygon","arcs":[[145,-62,146,147]],"id":"17005","properties":{"name":"Bond"}},{"type":"Polygon","arcs":[[148,149,150,151,152,153]],"id":"17045","properties":{"name":"Edgar"}},{"type":"Polygon","arcs":[[157,-21,-29,158,159,160]],"id":"17141","properties":{"name":"Ogle"}},{"type":"Polygon","arcs":[[163,164,165,166,167,168]],"id":"17085","properties":{"name":"Jo Daviess"}},{"type":"Polygon","arcs":[[-126,169,-75,170,-87,171,172]],"id":"17057","properties":{"name":"Fulton"}},{"type":"Polygon","arcs":[[175,176,-81,-103,-30,177,-110]],"id":"17011","properties":{"name":"Bureau"}},{"type":"Polygon","arcs":[[180,181,-22,-158,182,-166]],"id":"17177","properties":{"name":"Stephenson"}},{"type":"Polygon","arcs":[[183,184,185,-94,186,187,188,189,-157]],"id":"17149","properties":{"name":"Pike"}},{"type":"Polygon","arcs":[[-172,-86,-55,192,193,194]],"id":"17125","properties":{"name":"Mason"}},{"type":"Polygon","arcs":[[195,196,197,-44]],"id":"17101","properties":{"name":"Lawrence"}},{"type":"Polygon","arcs":[[198,-175,199,200,201,-24,202]],"id":"17111","properties":{"name":"McHenry"}},{"type":"Polygon","arcs":[[-202,203,204,-67,-25]],"id":"17089","properties":{"name":"Kane"}},{"type":"Polygon","arcs":[[-39,207,-154,208,209]],"id":"17041","properties":{"name":"Douglas"}},{"type":"Polygon","arcs":[[-119,212,213,214,215]],"id":"17083","properties":{"name":"Jersey"}},{"type":"Polygon","arcs":[[216,-194,217,218,219,220]],"id":"17017","properties":{"name":"Cass"}},{"type":"Polygon","arcs":[[221,222,223,224,225]],"id":"17127","properties":{"name":"Massac"}},{"type":"Polygon","arcs":[[226,-220,227,-115,228,-92,-186]],"id":"17137","properties":{"name":"Morgan"}},{"type":"Polygon","arcs":[[229,-112,-71,230,231,-191,232]],"id":"17131","properties":{"name":"Mercer"}},{"type":"Polygon","arcs":[[233,-127,-173,-195,-217,234,235]],"id":"17169","properties":{"name":"Schuyler"}},{"type":"Polygon","arcs":[[-45,-198,-207,240,241,242]],"id":"17185","properties":{"name":"Wabash"}},{"type":"Polygon","arcs":[[-101,-17,-7,249,250,251]],"id":"17055","properties":{"name":"Franklin"}},{"type":"Polygon","arcs":[[-16,252,-162,-180,253,-9]],"id":"17059","properties":{"name":"Gallatin"}},{"type":"Polygon","arcs":[[-187,-93,-229,-120,-216,254]],"id":"17061","properties":{"name":"Greene"}},{"type":"Polygon","arcs":[[-46,-243,257,-130]],"id":"17047","properties":{"name":"Edwards"}},{"type":"Polygon","arcs":[[-231,-76,-170,-125,258]],"id":"17187","properties":{"name":"Warren"}},{"type":"Polygon","arcs":[[-235,-221,-227,-185,259]],"id":"17009","properties":{"name":"Brown"}},{"type":"Polygon","arcs":[[260,-90,261,-56,-146,262,-117]],"id":"17135","properties":{"name":"Montgomery"}},{"type":"Polygon","arcs":[[-118,-263,-148,263,-133,-211,264,265,-213]],"id":"17119","properties":{"name":"Madison"}},{"type":"Polygon","arcs":[[268,269,270,271,272,273,274]],"id":"17181","properties":{"name":"Union"}},{"type":"Polygon","arcs":[[-11,279,-238,-237,-223,280]],"id":"17151","properties":{"name":"Pope"}},{"type":"Polygon","arcs":[[-152,-279,-244,281,-140,-145,282]],"id":"17023","properties":{"name":"Clark"}},{"type":"Polygon","arcs":[[-159,-28,-82,-177,284]],"id":"17103","properties":{"name":"Lee"}},{"type":"Polygon","arcs":[[-89,285,286,287,-143,-63,-57,-262]],"id":"17173","properties":{"name":"Shelby"}},{"type":"Polygon","arcs":[[-201,289,290,-248,291,292,-204]],"id":"17031","properties":{"name":"Cook"}},{"type":"Polygon","arcs":[[-96,293,-249,294,295,-2,296]],"id":"17091","properties":{"name":"Kankakee"}},{"type":"Polygon","arcs":[[-273,297,-226,-240,298,299]],"id":"17153","properties":{"name":"Pulaski"}},{"type":"Polygon","arcs":[[-59,-66,-142,-48,-129,-105]],"id":"17025","properties":{"name":"Clay"}},{"type":"Polygon","arcs":[[-4,300,-113,301,-289,-149,302]],"id":"17183","properties":{"name":"Vermilion"}},{"type":"Polygon","arcs":[[-193,-54,303,-218]],"id":"17129","properties":{"name":"Menard"}},{"type":"Polygon","arcs":[[304,-137,305,306,307]],"id":"17133","properties":{"name":"Monroe"}},{"type":"Polygon","arcs":[[-155,-268,308,309,-108,-230]],"id":"17161","properties":{"name":"Rock Island"}},{"type":"Polygon","arcs":[[-250,-12,310,-271,311]],"id":"17199","properties":{"name":"Williamson"}},{"type":"Polygon","arcs":[[-33,-79,312,313,-84,314]],"id":"17203","properties":{"name":"Woodford"}},{"type":"Polygon","arcs":[[-280,-10,-254,-179,-256,-239,-238,237]],"id":"17069","properties":{"name":"Hardin"}},{"type":"Polygon","arcs":[[315,-236,-260,-184,-156,316]],"id":"17001","properties":{"name":"Adams"}},{"type":"Polygon","arcs":[[-296,319,-114,-301,-3]],"id":"17075","properties":{"name":"Iroquois"}},{"type":"Polygon","arcs":[[-97,-297,-1,320,-313,-78]],"id":"17105","properties":{"name":"Livingston"}},{"type":"Polygon","arcs":[[-192,-232,-259,-124,321,322]],"id":"17071","properties":{"name":"Henderson"}},{"type":"Polygon","arcs":[[-123,323,-203,-23,-20]],"id":"17007","properties":{"name":"Boone"}},{"type":"Polygon","arcs":[[-274,-300,324,-246,-257,325]],"id":"17003","properties":{"name":"Alexander"}},{"type":"Polygon","arcs":[[-167,-183,-161,326,327,328]],"id":"17015","properties":{"name":"Carroll"}},{"type":"Polygon","arcs":[[329,-292,-247,-294,-95,-68]],"id":"17197","properties":{"name":"Will"}},{"type":"Polygon","arcs":[[-111,-178,-35,331,-73]],"id":"17175","properties":{"name":"Stark"}},{"type":"Polygon","arcs":[[-306,-136,332,333,334,-276,-318]],"id":"17157","properties":{"name":"Randolph"}},{"type":"Polygon","arcs":[[-174,335,-290,-200]],"id":"17097","properties":{"name":"Lake"}},{"type":"Polygon","arcs":[[-52,-122,-41,336,-286,-88,337]],"id":"17115","properties":{"name":"Macon"}},{"type":"Polygon","arcs":[[338,-107,-98,339,-333,-135]],"id":"17189","properties":{"name":"Washington"}},{"type":"Polygon","arcs":[[-282,-245,-206,-196,-43,-141]],"id":"17033","properties":{"name":"Crawford"}},{"type":"Polygon","arcs":[[-188,-255,-215,340,-278,-212]],"id":"17013","properties":{"name":"Calhoun"}},{"type":"Polygon","arcs":[[-314,-321,-6,341,-37,-121,-50,-85]],"id":"17113","properties":{"name":"McLean"}},{"type":"Polygon","arcs":[[-342,-5,-303,-208,-38]],"id":"17019","properties":{"name":"Champaign"}},{"type":"Polygon","arcs":[[-264,-147,-61,-104,-339,-134]],"id":"17027","properties":{"name":"Clinton"}},{"type":"Polygon","arcs":[[-284,-331,-322,-128,-234,-316,-319]],"id":"17067","properties":{"name":"Hancock"}},{"type":"Polygon","arcs":[[342,-327,-160,-285,-176,-109,-310]],"id":"17195","properties":{"name":"Whiteside"}},{"type":"Polygon","arcs":[[-131,-258,-242,-267,-163,-253,-15]],"id":"17193","properties":{"name":"White"}},{"type":"Polygon","arcs":[[-304,-53,-338,-91,-261,-116,-228,-219]],"id":"17167","properties":{"name":"Sangamon"}},{"type":"Polygon","arcs":[[-40,-210,343,-287,-337]],"id":"17139","properties":{"name":"Moultrie"}},{"type":"Polygon","arcs":[[-272,-311,-281,-222,-298]],"id":"17087","properties":{"name":"Johnson"}},{"type":"Polygon","arcs":[[-74,-332,-34,-315,-83,-171]],"id":"17143","properties":{"name":"Peoria"}},{"type":"Polygon","arcs":[[344,-251,-312,-270,-277,-335]],"id":"17077","properties":{"name":"Jackson"}},{"type":"Polygon","arcs":[[-209,-153,-283,-144,-288,-344]],"id":"17029","properties":{"name":"Coles"}},{"type":"Polygon","arcs":[[-340,-102,-252,-345,-334]],"id":"17145","properties":{"name":"Perry"}},{"type":"Polygon","arcs":[[-293,-330,-205]],"id":"17043","properties":{"name":"DuPage"}}]}},"arcs":[[[25266,64221],[63,1],[-4,438]],[[25325,64660],[32,4]],[[25357,64664],[4,-593],[51,-3]],[[25412,64068],[1,-100]],[[25413,63968],[-147,-1]],[[25266,63967],[0,254]],[[25197,61015],[0,51]],[[25197,61066],[93,1]],[[25290,61067],[0,-359]],[[25290,60708],[-11,1]],[[25279,60709],[-82,-1]],[[25197,60708],[0,307]],[[25198,61320],[1,153]],[[25199,61473],[92,-1]],[[25291,61472],[-1,-404]],[[25290,61068],[0,-1]],[[25197,61066],[1,254]],[[25004,66413],[10,0]],[[25014,66413],[118,-6]],[[25132,66407],[0,-399]],[[25132,66008],[-65,-2],[0,63],[-62,-3]],[[25005,66066],[-1,347]],[[25132,66008],[66,2]],[[25198,66010],[32,0]],[[25230,66010],[0,-102],[-3,0],[0,-404]],[[25227,65504],[-1,-102]],[[25226,65402],[-93,-4]],[[25133,65398],[-1,307]],[[25132,65705],[1,201],[-1,102]],[[24938,64840],[48,0]],[[24986,64840],[38,-1],[-8,-52],[54,1]],[[25070,64788],[32,1],[0,-209]],[[25102,64580],[-26,2],[-92,-7]],[[24984,64575],[7,61],[-53,0]],[[24938,64636],[0,204]],[[25187,63567],[0,51],[16,0],[0,50],[31,162]],[[25234,63830],[32,1]],[[25266,63831],[-1,-68],[0,-401]],[[25265,63362],[0,-102],[-3,0]],[[25262,63260],[-76,1]],[[25186,63261],[1,306]],[[25322,62161],[87,3]],[[25409,62164],[11,0]],[[25420,62164],[-1,-326]],[[25419,61838],[-12,0]],[[25407,61838],[-54,-1]],[[25353,61837],[0,34],[-29,1]],[[25324,61872],[-13,41],[7,33],[-3,80],[7,0],[0,135]],[[24948,63875],[94,6]],[[25042,63881],[0,-51],[32,1]],[[25074,63831],[1,-272]],[[25075,63559],[1,-152],[-21,-1]],[[25055,63406],[-52,1],[0,17],[-22,1],[0,51],[-26,-1]],[[24955,63475],[-1,135],[-6,35]],[[24948,63645],[0,230]],[[25046,62371],[0,221],[31,0]],[[25077,62592],[93,-2]],[[25170,62590],[-1,-354],[32,3]],[[25201,62239],[0,-103]],[[25201,62136],[-94,-4],[-30,2],[0,-102]],[[25077,62032],[-32,6]],[[25045,62038],[-1,300],[2,33]],[[25170,62590],[93,-1]],[[25263,62589],[0,-51],[31,0]],[[25294,62538],[-1,-303]],[[25293,62235],[-92,4]],[[25227,65504],[94,6]],[[25321,65510],[3,-304]],[[25324,65206],[-96,-7]],[[25228,65199],[-2,203]],[[24715,64741],[0,102]],[[24715,64843],[126,-2]],[[24841,64841],[0,-204]],[[24841,64637],[0,-305]],[[24841,64332],[-128,3]],[[24713,64335],[2,406]],[[25228,65199],[3,-406]],[[25231,64793],[-96,-3],[0,-207]],[[25135,64583],[-33,-3]],[[25070,64788],[0,240]],[[25070,65028],[-1,320]],[[25069,65348],[0,51],[64,-1]],[[24873,64100],[16,33],[43,30],[0,40],[14,59],[-2,14],[16,42],[1,55]],[[24961,64373],[63,1],[0,-155],[16,1],[1,-26]],[[25041,64194],[1,-313]],[[24948,63875],[-32,-1],[0,136],[-58,0]],[[24858,64010],[15,90]],[[25055,63285],[21,-14],[1,-170],[31,-1]],[[25108,63100],[1,-359],[-32,4]],[[25077,62745],[-109,0],[-1,204]],[[24967,62949],[0,136],[15,0],[0,50],[15,-1],[0,92],[8,-24],[12,35],[14,5],[16,58],[8,-15]],[[24670,63258],[32,-1],[0,-41],[32,0],[-1,-102],[10,-1],[0,-33],[10,0],[0,-136]],[[24753,62944],[-78,2]],[[24675,62946],[3,20],[-10,115],[-11,76],[13,101]],[[25324,65206],[2,-305]],[[25326,64901],[1,-101],[-3,0]],[[25324,64800],[-93,-7]],[[25075,61422],[0,304]],[[25075,61726],[62,4],[62,-3]],[[25199,61727],[0,-254]],[[25198,61320],[-118,0]],[[25080,61320],[-6,0],[1,102]],[[24986,64840],[0,99],[30,-1],[6,79],[19,25],[29,-14]],[[25076,61760],[1,272]],[[25201,62136],[-1,-256]],[[25200,61880],[-1,-153]],[[25075,61726],[1,34]],[[24716,65047],[1,151],[15,26],[12,41],[26,13],[13,21],[2,48]],[[24785,65347],[90,0]],[[24875,65347],[2,-77],[0,-330]],[[24877,64940],[-3,0],[0,-100],[-33,1]],[[24715,64843],[1,204]],[[25526,64058],[0,16]],[[25526,64074],[0,286]],[[24794,62944],[64,2]],[[24858,62946],[62,2]],[[24920,62948],[1,-611]],[[24921,62337],[-125,2]],[[24796,62339],[0,304]],[[24796,62643],[-2,301]],[[25074,63831],[160,-1]],[[25187,63567],[-112,-8]],[[25178,66404],[-46,3]],[[24585,64247],[32,-4]],[[24617,64243],[96,-10]],[[24713,64233],[-1,-409]],[[24712,63824],[-128,10]],[[24584,63834],[1,413]],[[25200,61880],[37,1],[87,-9]],[[25353,61837],[-1,-364]],[[25352,61473],[-61,-1]],[[24765,61794],[21,92],[0,57]],[[24786,61943],[133,-6]],[[24919,61937],[0,-279]],[[24919,61658],[1,-228]],[[24920,61430],[-55,1]],[[24865,61431],[-7,62],[3,40],[-34,1],[0,17],[-31,103],[1,17],[-33,110]],[[24764,61781],[1,13]],[[25294,62538],[98,3]],[[25392,62541],[16,1]],[[25408,62542],[1,-378]],[[25322,62161],[-29,5],[0,69]],[[25263,62589],[0,186]],[[25263,62775],[128,5]],[[25391,62780],[1,-239]],[[24938,62338],[14,0],[0,33],[94,0]],[[25045,62038],[-96,2]],[[24949,62040],[0,153],[-11,-1],[0,146]],[[25412,63363],[89,2],[17,-15],[6,16]],[[25524,63366],[1,-320]],[[25525,63046],[0,-152]],[[25525,62894],[-44,0],[0,12],[-76,-7]],[[25405,62899],[-1,238]],[[25404,63137],[-1,124],[9,0],[0,102]],[[24618,65194],[-17,3],[-23,-40],[-13,15],[-19,-21],[-8,-96]],[[24437,63439],[5,-21],[-8,-66],[5,-38],[15,-34],[3,-58]],[[24457,63222],[-2,-31],[18,-55]],[[24924,66063],[81,3]],[[25132,65705],[-117,-5],[0,17],[-31,11],[-2,-11],[-42,-1]],[[24940,65716],[0,33],[-15,1]],[[24925,65750],[-1,313]],[[25386,60941],[-11,2],[-4,34],[12,-9],[-14,80]],[[25369,61048],[22,4],[-15,29],[15,67],[1,60],[-8,26],[19,19],[2,38],[-12,-19],[22,73],[-14,60],[-3,37]],[[24658,66423],[60,-2]],[[24718,66421],[139,-1]],[[24857,66420],[2,-360]],[[24859,66060],[-111,-4]],[[24748,66056],[-16,25],[-15,74],[3,60],[-15,60]],[[24705,66275],[-23,40],[-2,26],[-22,35],[0,47]],[[24713,64233],[0,102]],[[24841,64332],[-1,-101],[32,-1],[1,-130]],[[24858,64010],[-16,-50],[-16,-21],[-9,-95],[-13,-68],[-23,-59]],[[24781,63717],[-70,6],[1,101]],[[25450,66403],[-111,5]],[[25339,66408],[-30,-1]],[[24875,65347],[65,1]],[[24940,65348],[129,0]],[[24938,64840],[0,99],[-61,1]],[[25377,60599],[-3,27],[-17,53]],[[25357,60679],[-7,105],[11,56],[17,35],[8,66]],[[24857,66420],[25,-1]],[[24882,66419],[122,-6]],[[24924,66063],[-65,-3]],[[24457,63222],[125,-2],[0,102]],[[24582,63322],[6,-5],[90,-1]],[[24678,63316],[-8,-58]],[[24675,62946],[-8,-75],[-1,-72]],[[24666,62799],[-90,5]],[[24576,62804],[-19,32],[-16,54],[-11,76],[-13,8],[-8,61]],[[24509,63035],[-13,22],[-23,79]],[[24573,64751],[0,-3]],[[24573,64748],[1,-67],[-6,-106],[-11,-19],[-14,-66],[-10,-27],[-6,-150]],[[24948,63645],[-9,36],[-14,2],[-18,-33],[-42,1],[-20,17],[-7,-39]],[[24838,63629],[-19,-9],[-19,-45],[-18,-11],[-25,3],[-8,71],[-11,9]],[[24738,63647],[24,36],[15,-5],[4,39]],[[25420,62164],[104,3]],[[25524,62167],[10,-86],[1,-42],[-14,-76],[-14,-12],[-7,-32],[-9,-83]],[[25491,61836],[-72,2]],[[25197,66405],[112,2]],[[25339,66408],[0,-398]],[[25339,66010],[-11,0]],[[25328,66010],[-98,0]],[[25198,66010],[-1,395]],[[25328,66010],[0,-101],[-7,-1],[0,-93]],[[25321,65815],[0,-305]],[[25524,62167],[-5,8],[7,56]],[[25465,61657],[2,71],[24,42],[0,66]],[[25265,63362],[147,1]],[[25404,63137],[-27,-5],[0,-34],[-114,-1]],[[25263,63097],[-1,163]],[[24791,62074],[-13,-59],[8,-72]],[[24576,62804],[40,-105],[20,-100]],[[24796,62339],[-35,-1],[-1,-89]],[[24760,62249],[-9,1],[-27,45],[-13,6]],[[24711,62301],[-23,-11],[-10,41],[-3,84],[-6,60]],[[24669,62475],[8,71],[11,17],[13,-21],[49,-1],[0,60],[31,0],[-1,38],[16,4]],[[24694,63489],[22,38],[2,46],[20,74]],[[24838,63629],[1,-241]],[[24839,63388],[0,-33]],[[24839,63355],[-165,4]],[[24674,63359],[9,29],[12,77],[-1,24]],[[25135,60363],[6,38],[55,2]],[[25196,60403],[62,-207],[0,-107]],[[25258,60089],[-21,13]],[[25237,60102],[-18,49],[-35,40],[-14,39],[-34,44]],[[25136,60274],[-1,89]],[[24678,63316],[-4,43]],[[24839,63355],[2,-181],[17,-185],[0,-43]],[[24794,62944],[-41,0]],[[24538,65055],[178,-8]],[[24715,64741],[-97,6]],[[24618,64747],[-45,1]],[[24573,64751],[0,28],[-13,75],[-13,6],[-20,85],[11,110]],[[24583,63727],[1,107]],[[24694,63489],[-26,-8],[1,25],[-21,58],[-5,59],[-61,1]],[[24582,63624],[1,103]],[[25258,60089],[8,7],[10,89],[-7,66],[-17,65],[-2,25],[9,65],[2,55],[18,43]],[[25279,60504],[0,1]],[[25279,60505],[15,-23]],[[25134,60276],[2,-2]],[[25465,61657],[-9,-51],[-8,-9],[-13,-102],[-8,33],[-7,-41],[-5,35],[-9,-68],[-8,19]],[[25398,61473],[-1,4]],[[25397,61477],[11,36],[-7,127],[9,65],[-3,133]],[[25494,62522],[19,71],[-8,48]],[[25526,62231],[4,55],[-18,40],[1,79],[-16,55],[-3,62]],[[25029,60021],[12,-18],[3,25],[-15,45],[14,12],[17,-56],[8,-53],[11,14]],[[25526,65014],[0,200]],[[25526,65214],[1,277]],[[25526,64860],[0,154]],[[25197,61015],[-123,-1]],[[25074,61014],[0,103],[-8,0]],[[25066,61117],[9,41],[7,86],[-2,76]],[[25290,61068],[66,-1],[13,-19]],[[25357,60679],[-13,29],[-54,0]],[[24669,62475],[-3,53],[6,42],[-5,71],[2,38],[-5,85],[2,35]],[[25294,60482],[17,49],[12,11],[48,19],[6,38]],[[24979,60303],[9,-13],[-1,-47],[13,-87],[11,-46],[-1,-53],[19,-36]],[[25397,61477],[-45,-4]],[[24617,64243],[1,504]],[[24582,63322],[0,302]],[[24920,62948],[47,1]],[[25077,62745],[0,-153]],[[24938,62338],[-17,-1]],[[24949,62040],[1,-102],[-31,-1]],[[24791,62074],[13,38]],[[24804,62112],[1,51],[-38,82],[-7,4]],[[25398,61442],[0,31]],[[24749,65515],[1,-36],[-9,-59],[1,-66],[-16,-21],[-18,-57],[-26,1],[-10,-13],[-16,-56],[-24,-17],[-14,3]],[[24970,60670],[0,5]],[[24970,60675],[14,-10],[6,44],[83,0]],[[25073,60709],[31,-4]],[[25104,60705],[-1,-311]],[[25103,60394],[-57,7]],[[25046,60401],[-66,-1]],[[24980,60400],[14,11],[4,62],[-26,161],[-2,36]],[[24854,61029],[10,-6],[16,42],[13,-28],[1,-29],[15,-12],[19,-51]],[[24928,60945],[2,-59],[14,-3],[9,-42],[19,-24],[2,-79],[9,-34],[-13,-29]],[[24636,62599],[3,-80],[8,-78],[-9,-36],[11,-85],[3,-58]],[[25505,62641],[-2,26],[9,68],[13,9],[0,150]],[[25279,60709],[0,-204]],[[25196,60403],[1,305]],[[25494,62522],[-4,17],[-25,8],[-57,-5]],[[25391,62780],[-1,118],[15,1]],[[24442,63943],[-8,-18],[-13,-99],[-1,-34]],[[24940,65348],[0,368]],[[25108,63100],[60,-1]],[[25168,63099],[1,-85],[25,-1],[0,-68],[22,0],[15,-85],[32,-1]],[[25263,62859],[0,-84]],[[25524,63366],[1,309]],[[25339,66010],[122,-2]],[[25461,66008],[22,-89],[3,-54],[13,-139],[4,-75],[14,-93],[8,-20],[2,-47]],[[25526,65214],[-73,0],[-1,103],[-33,-2],[0,101],[-32,-3],[-1,52]],[[25386,65465],[17,1],[15,35],[-2,169],[0,154],[-95,-9]],[[25326,64901],[65,5],[-1,101],[136,7]],[[25526,64860],[0,-181]],[[25526,64679],[-169,-15]],[[25325,64660],[-1,140]],[[25103,60394],[0,-41],[12,20],[20,-10]],[[25134,60276],[-14,1],[-13,-21],[-13,-42],[-9,-65],[-17,-59]],[[25068,60090],[-25,44],[-2,87],[8,105],[10,21],[-1,38],[-12,16]],[[25412,64068],[114,6]],[[25526,64058],[-1,-383]],[[25412,63363],[-2,402],[4,0],[-1,203]],[[24955,63475],[-34,-1],[-1,-68],[-19,-1],[0,-16],[-62,-1]],[[24742,61626],[13,45],[9,110]],[[24865,61431],[-38,3],[0,-102],[-48,-55]],[[24779,61277],[-12,46]],[[24767,61323],[-11,50],[-18,50],[-5,70],[1,78],[8,55]],[[24749,65515],[20,63]],[[24769,65578],[3,-124],[20,-38],[-1,-54],[-6,-15]],[[25197,60708],[-93,-3]],[[25073,60709],[1,305]],[[25135,64583],[0,-203]],[[25135,64380],[-16,-2],[1,-101],[-17,-2],[0,-42],[-16,-3],[-9,-33],[-37,-3]],[[24961,64373],[-2,53],[25,149]],[[24418,63736],[165,-9]],[[24437,63439],[-16,106],[-6,165],[3,26]],[[24779,61277],[22,-30],[11,-54],[8,0],[17,-60],[16,7],[3,-27],[-12,-24],[10,-60]],[[24420,63792],[-2,-56]],[[25526,64679],[0,-319]],[[25266,64221],[-32,-1],[-3,165],[-96,-5]],[[24585,64247],[-33,-5],[-45,3]],[[24507,64245],[18,41],[2,27]],[[25178,66404],[19,1]],[[25068,60090],[-3,-48],[14,-52]],[[24979,60303],[-8,40],[9,57]],[[24925,65750],[-130,-2]],[[24795,65748],[-4,32],[7,61],[-4,28]],[[24794,65869],[-4,50],[2,48],[-13,41],[-31,48]],[[25321,65510],[65,5],[0,-50]],[[24507,64245],[-18,1],[-31,-43],[-13,-69],[11,-35],[-4,-90],[2,-50],[-12,-16]],[[24938,64636],[-97,1]],[[24920,61430],[30,0]],[[24950,61430],[1,-93],[-1,-215]],[[24950,61122],[-17,-112],[-5,-65]],[[25450,66403],[-2,-124],[-8,-97],[10,-109],[11,-65]],[[25186,63261],[-3,-61],[-15,1],[0,-102]],[[25055,63285],[0,121]],[[24919,61658],[25,66],[21,10],[16,-14],[15,35],[24,14],[56,-9]],[[25075,61422],[-125,8]],[[24711,62301],[-6,-10],[-9,-66],[-11,-32],[-11,-7],[-12,26],[-10,50]],[[25266,63967],[0,-136]],[[24769,65578],[18,31],[-1,41],[9,98]],[[25263,63097],[0,-238]],[[24950,61122],[116,-5]]],"bbox":[-91.51472716237161,36.97041500324003,-87.4947178902789,42.508772828518275]}